OBJECT_NAME,OBJECT_ID,EPOCH,MEAN_MOTION,ECCENTRICITY,INCLINATION,RA_OF_ASC_NODE,ARG_OF_PERICENTER,MEAN_ANOMALY,EPHEMERIS_TYPE,CLASSIFICATION_TYPE,NORAD_CAT_ID,ELEMENT_SET_NO,REV_AT_EPOCH,BSTAR,MEAN_MOTION_DOT,MEAN_MOTION_DDOT
HAWK-5A,2022-057AB,2026-07-16T10:42:42.868800,15.52352143,.00032292,97.6626,358.2106,332.4655,27.6426,0,U,52757,999,23088,.18293221E-3,.11042E-3,0
HAWK-6B,2023-011A,2026-07-16T08:41:25.559232,15.23160082,.00043157,40.4972,181.8706,246.4239,113.6117,0,U,55324,999,19229,.11121715E-3,.2488E-4,0
HAWK-6C,2023-011C,2026-07-16T08:40:30.953568,15.23160464,.00048302,40.4963,178.7100,240.0320,120.0010,0,U,55326,999,19230,.97873876E-4,.2165E-4,0
HAWK-6A,2023-011D,2026-07-16T08:40:34.203936,15.23160255,.00044293,40.4973,180.3367,237.1478,122.8905,0,U,55327,999,19230,.10286283E-3,.2286E-4,0
HAWK-7A,2023-054P,2026-07-16T14:08:19.830624,15.27641205,.00012636,97.2659,84.1789,324.8705,35.2451,0,U,56191,999,18151,.11411835E-3,.3011E-4,0
HAWK-7B,2023-054R,2026-07-16T15:42:33.431904,15.27640033,.00011539,97.2685,82.5169,13.4099,346.7171,0,U,56193,999,18152,.11480873E-3,.303E-4,0
HAWK-7C,2023-054Y,2026-07-16T14:08:03.157152,15.27642190,.00007817,97.2660,83.2128,348.4346,11.6875,0,U,56200,999,18151,.11335708E-3,.2991E-4,0
