HAWK-5A                 
1 52757U 22057AB  26197.44632950  .00011042  00000+0  18293-3 0  9993
2 52757  97.6626 358.2106 0003229 332.4655  27.6426 15.52352143230882
HAWK-6B                 
1 55324U 23011A   26197.36210138  .00002488  00000+0  11122-3 0  9996
2 55324  40.4972 181.8706 0004315 246.4239 113.6117 15.23160082192292
HAWK-6C                 
1 55326U 23011C   26197.36146937  .00002165  00000+0  97874-4 0  9994
2 55326  40.4963 178.7100 0004830 240.0320 120.0010 15.23160464192300
HAWK-6A                 
1 55327U 23011D   26197.36150699  .00002286  00000+0  10286-3 0  9990
2 55327  40.4973 180.3367 0004429 237.1478 122.8905 15.23160255192302
HAWK-7A                 
1 56191U 23054P   26197.58911841  .00003011  00000+0  11412-3 0  9994
2 56191  97.2659  84.1789 0001263 324.8705  35.2451 15.27641205181519
HAWK-7B                 
1 56193U 23054R   26197.65455361  .00003030  00000+0  11481-3 0  9991
2 56193  97.2685  82.5169 0001153  13.4099 346.7171 15.27640033181527
HAWK-7C                 
1 56200U 23054Y   26197.58892543  .00002991  00000+0  11336-3 0  9993
2 56200  97.2660  83.2128 0000781 348.4346  11.6875 15.27642190181518
